QIANFAN-17              
1 60395U 24140S   25294.81449147  .00000067  00000+0  84665-4 0  9999
2 60395  88.9748 304.8143 0014983   4.0708 356.0562 13.50970255 61120
QIANFAN-18              
1 60396U 24140T   25294.86796326  .00000054  00000+0  65315-4 0  9996
2 60396  88.9740 304.3461 0013690 346.7507  13.3282 13.50975270 60525
QIANFAN-19              
1 61552U 24185A   25294.86415833  .00000915  00000+0  47229-3 0  9990
2 61552  88.9776  83.8800 0008995 107.6871 252.5299 14.14211386 62333
QIANFAN-20              
1 61553U 24185B   25294.83810620  .00000887  00000+0  50661-3 0  9993
2 61553  88.9774  84.1546 0006990 137.8832 222.2890 14.08761399 62189
QIANFAN-21              
1 61554U 24185C   25294.83897021  .00001186  00000+0  52550-3 0  9996
2 61554  88.9694  83.0528 0011271 162.0314 198.1278 14.22495763 62593
QIANFAN-22              
1 61555U 24185D   25294.89275168  .00000251  00000+0  20583-3 0  9998
2 61555  88.9758  84.9217 0007809 141.6517 218.5211 13.86274694 61758
QIANFAN-23              
1 61556U 24185E   25294.84202053  .00001159  00000+0  57820-3 0  9999
2 61556  88.9770  83.7165 0009697 117.5317 242.6858 14.16209181 62400
QIANFAN-24              
1 61557U 24185F   25294.88553733  .00001276  00000+0  55271-3 0  9996
2 61557  88.9751  83.2013 0011654 105.0855 255.1628 14.23704466 62646
